ONEWEB-0126             
1 47272U 20100Q   23223.94287781 -.00000225  00000+0 -66056-3 0  9999
2 47272  87.9029 197.4390 0002205  85.7076 274.4304 13.12442754128259
ONEWEB-0127             
1 47273U 20100R   23223.98204251  .00000256  00000+0  67742-3 0  9990
2 47273  87.9015 197.4082 0002164  84.5462 275.5913 13.12445141128287
ONEWEB-0128             
1 47274U 20100S   23223.62203349  .00000282  00000+0  74796-3 0  9995
2 47274  87.9019 197.4631 0002254  95.3790 264.7595 13.12443152128259
ONEWEB-0129             
1 47275U 20100T   23224.44159169  .00000260  00000+0  68824-3 0  9998
2 47275  87.9029 197.3512 0003679  75.3668 284.7868 13.12443851128297
ONEWEB-0130             
1 47276U 20100U   23223.62839275  .00000091  00000+0  21766-3 0  9997
2 47276  87.9029 197.5068 0002081  88.1553 271.9814 13.12440747128152
ONEWEB-0131             
1 47277U 20100V   23223.62627508  .00000110  00000+0  26955-3 0  9999
2 47277  87.9029 197.4510 0001958  90.5681 269.5672 13.12443563128193
ONEWEB-0132             
1 47278U 20100W   23223.96085968 -.00000396  00000+0 -11369-2 0  9995
2 47278  87.9028 197.3867 0001761  84.4932 275.6397 13.12441329128134
ONEWEB-0133             
1 47279U 20100X   23223.44414957  .00000208  00000+0  54414-3 0  9992
2 47279  87.9020 197.5200 0001996  87.7146 272.4211 13.12444819128220
